STARLINK-33847          
1 63685U 25085X   26178.04219288  .00014737  00000+0  54417-3 0  9991
2 63685  42.9982 133.3732 0001256 269.3519  90.7189 15.27569195 65594
STARLINK-33880          
1 63686U 25085Y   26178.18581394  .00025051  00000+0  91695-3 0  9997
2 63686  43.0001 132.7384 0001490 262.4040  97.6642 15.27573370 65723
HULIANWANG DIGUI-20     
1 63687U 25086A   26178.52597882  .00000024  00000+0  21986-4 0  9996
2 63687  86.5057 309.6494 0001621 112.5054 247.6252 13.24410741 56248
HULIANWANG DIGUI-21     
1 63688U 25086B   26178.53354369  .00000041  00000+0  61887-4 0  9992
2 63688  86.5085 309.7074 0001493 112.9150 247.2141 13.24409399 56232
HULIANWANG DIGUI-22     
1 63689U 25086C   26178.54107003  .00000054  00000+0  91636-4 0  9994
2 63689  86.5050 309.5694 0001662 113.1052 247.0258 13.24409786 56230
HULIANWANG DIGUI-23     
1 63690U 25086D   26178.48060347  .00000030  00000+0  34762-4 0  9999
2 63690  86.5092 309.7723 0001633 112.5854 247.5453 13.24409524 56225
HULIANWANG DIGUI-24     
1 63691U 25086E   26178.48820367  .00000015  00000+0  18742-5 0  9990
2 63691  86.5100 309.8039 0001537 113.5522 246.5774 13.24410256 56222
HULIANWANG DIGUI-25     
1 63692U 25086F   26178.49574992  .00000004  00000+0 -25858-4 0  9996
2 63692  86.5038 309.5557 0001580 110.2614 249.8690 13.24409537 56222
HULIANWANG DIGUI-26     
1 63693U 25086G   26178.54858605  .00000049  00000+0  79722-4 0  9996
2 63693  86.5087 309.7180 0001551 121.0603 239.0683 13.24408535 56238
HULIANWANG DIGUI-27     
1 63694U 25086H   26178.50330256  .00000006  00000+0 -19277-4 0  9993
2 63694  86.5048 309.5981 0001568 113.3803 246.7496 13.24411404 56222
HULIANWANG DIGUI-28     
1 63695U 25086J   26178.51837351  .00000022  00000+0  17356-4 0  9996
2 63695  86.5011 309.4581 0001676 113.0464 247.0847 13.24410214 56220
HULIANWANG DIGUI-29     
1 63696U 25086K   26178.51085715  .00000013  00000+0 -37758-5 0  9996
2 63696  86.5040 309.5715 0001531 110.7013 249.4285 13.24410588 56223
STARLINK-33894          
1 63697U 25087A   26178.51389794  .00023563  00000+0  70658-3 0  9990
2 63697  53.1574  67.3544 0000942  86.7863 273.3247 15.34387721 66045
STARLINK-33922          
1 63698U 25087B   26178.42208876  .00020247  00000+0  69407-3 0  9998
2 63698  53.1603  69.6166 0001369  79.4739 280.6415 15.30189781 65992
STARLINK-33919          
1 63699U 25087C   26178.41270494  .00018917  00000+0  64945-3 0  9996
2 63699  53.1598  70.2656 0001246  79.0813 281.0328 15.30187294 65996
STARLINK-33908          
1 63700U 25087D   26177.98176175  .00024870  00000+0  84948-3 0  9991
2 63700  53.1590  71.8406 0001016  99.7155 260.3961 15.30181534 65932
STARLINK-33950          
1 63701U 25087E   26178.42397963  .00048745  00000+0  15713-2 0  9992
2 63701  53.1603  69.6287 0001162  78.4069 281.7062 15.31720744 66001
STARLINK-33939          
1 63702U 25087F   26178.00446735  .00035353  00000+0  11459-2 0  9993
2 63702  53.1582  71.2762 0001032  96.7532 263.3587 15.31691724 65944
STARLINK-33868          
1 63703U 25087G   26177.98598510  .00027963  00000+0  95343-3 0  9992
2 63703  53.1589  71.8640 0001109  78.0778 282.0347 15.30175225 65936
STARLINK-33937          
1 63704U 25087H   26178.41891958  .00020065  00000+0  68789-3 0  9994
2 63704  53.1603  69.5927 0001158  81.8642 278.2490 15.30193640 66008
STARLINK-33848          
1 63705U 25087J   26178.43052361  .00020572  00000+0  70491-3 0  9990
2 63705  53.1600  69.6643 0001177  85.6122 274.5014 15.30193090 65995
STARLINK-33995          
1 63706U 25087K   26178.01554260  .00017585  00000+0  60457-3 0  9991
2 63706  53.1591  72.0475 0001114  72.5468 287.5654 15.30192643 65936
STARLINK-33982          
1 63707U 25087L   26178.43685861  .00018677  00000+0  64130-3 0  9995
2 63707  53.1601  69.6998 0001122  97.8513 262.2615 15.30191780 66008
STARLINK-33915          
1 63708U 25087M   26177.99126144  .00034729  00000+0  11801-2 0  9992
2 63708  53.1585  71.8995 0001026  85.1203 274.9915 15.30176868 65935
STARLINK-33862          
1 63709U 25087N   26177.98493352  .00027028  00000+0  92146-3 0  9996
2 63709  53.1593  71.8617 0001252  83.7301 276.3843 15.30196620 65934
STARLINK-33920          
1 63710U 25087P   26178.41463638 -.00003753  00000+0 -10920-3 0  9992
2 63710  53.1589  69.5728 0001055  91.2816 268.8306 15.31712428 66004
STARLINK-33580          
1 63711U 25087Q   26178.41931470  .00020133  00000+0  65876-3 0  9996
2 63711  53.1600  69.5973 0001701  78.2028 281.9165 15.31701544 66005
STARLINK-33783          
1 63712U 25087R   26178.40530858  .00022201  00000+0  72512-3 0  9994
2 63712  53.1583  69.5079 0001178  81.4616 278.6519 15.31696346 66009
STARLINK-33773          
1 63713U 25087S   26178.43321608  .00021933  00000+0  71647-3 0  9998
2 63713  53.1596  68.9712 0001166  95.7464 264.3671 15.31700022 66016
STARLINK-33745          
1 63714U 25087T   26178.33335647 -.00018462  00000+0 -61268-3 0  9999
2 63714  53.1601  70.0566 0001092 101.7245 111.8818 15.30203733  5881
