OBJECT_NAME,OBJECT_ID,EPOCH,MEAN_MOTION,ECCENTRICITY,INCLINATION,RA_OF_ASC_NODE,ARG_OF_PERICENTER,MEAN_ANOMALY,EPHEMERIS_TYPE,CLASSIFICATION_TYPE,NORAD_CAT_ID,ELEMENT_SET_NO,REV_AT_EPOCH,BSTAR,MEAN_MOTION_DOT,MEAN_MOTION_DDOT
STARLINK-33847,2025-085X,2026-06-27T01:00:45.464832,15.27569195,.00012566,42.9982,133.3732,269.3519,90.7189,0,U,63685,999,6559,.54417039E-3,.14737E-3,0
STARLINK-33880,2025-085Y,2026-06-27T04:27:34.324416,15.27573370,.00014909,43.0001,132.7384,262.4040,97.6642,0,U,63686,999,6572,.91694783E-3,.25051E-3,0
HULIANWANG DIGUI-20,2025-086A,2026-06-27T12:37:24.570048,13.24410741,.0001621,86.5057,309.6494,112.5054,247.6252,0,U,63687,999,5624,.21986E-4,.24E-6,0
HULIANWANG DIGUI-21,2025-086B,2026-06-27T12:48:18.174816,13.24409399,.0001493,86.5085,309.7074,112.9150,247.2141,0,U,63688,999,5623,.61887E-4,.41E-6,0
HULIANWANG DIGUI-22,2025-086C,2026-06-27T12:59:08.450592,13.24409786,.0001662,86.5050,309.5694,113.1052,247.0258,0,U,63689,999,5623,.91636E-4,.54E-6,0
HULIANWANG DIGUI-23,2025-086D,2026-06-27T11:32:04.139808,13.24409524,.0001633,86.5092,309.7723,112.5854,247.5453,0,U,63690,999,5622,.34762E-4,.3E-6,0
HULIANWANG DIGUI-24,2025-086E,2026-06-27T11:43:00.797088,13.24410256,.0001537,86.5100,309.8039,113.5522,246.5774,0,U,63691,999,5622,.18742E-5,.15E-6,0
HULIANWANG DIGUI-25,2025-086F,2026-06-27T11:53:52.793088,13.24409537,.000158,86.5038,309.5557,110.2614,249.8690,0,U,63692,999,5622,-.25858E-4,.4E-7,0
HULIANWANG DIGUI-26,2025-086G,2026-06-27T13:09:57.834720,13.24408535,.0001551,86.5087,309.7180,121.0603,239.0683,0,U,63693,999,5623,.79722E-4,.49E-6,0
HULIANWANG DIGUI-27,2025-086H,2026-06-27T12:04:45.341184,13.24411404,.0001568,86.5048,309.5981,113.3803,246.7496,0,U,63694,999,5622,-.19277E-4,.6E-7,0
HULIANWANG DIGUI-28,2025-086J,2026-06-27T12:26:27.471264,13.24410214,.0001676,86.5011,309.4581,113.0464,247.0847,0,U,63695,999,5622,.17356E-4,.22E-6,0
HULIANWANG DIGUI-29,2025-086K,2026-06-27T12:15:38.057760,13.24410588,.0001531,86.5040,309.5715,110.7013,249.4285,0,U,63696,999,5622,-.37758E-5,.13E-6,0
STARLINK-33894,2025-087A,2026-06-27T12:20:00.782016,15.34387721,.0000942,53.1574,67.3544,86.7863,273.3247,0,U,63697,999,6604,.70658E-3,.23563E-3,0
STARLINK-33922,2025-087B,2026-06-27T10:07:48.468864,15.30189781,.0001369,53.1603,69.6166,79.4739,280.6415,0,U,63698,999,6599,.69407E-3,.20247E-3,0
STARLINK-33919,2025-087C,2026-06-27T09:54:17.706816,15.30187294,.0001246,53.1598,70.2656,79.0813,281.0328,0,U,63699,999,6599,.64945E-3,.18917E-3,0
STARLINK-33908,2025-087D,2026-06-26T23:33:44.215200,15.30181534,.00010165,53.1590,71.8406,99.7155,260.3961,0,U,63700,999,6593,.8494832E-3,.2487E-3,0
STARLINK-33950,2025-087E,2026-06-27T10:10:31.840032,15.31720744,.0001162,53.1603,69.6287,78.4069,281.7062,0,U,63701,999,6600,.15713E-2,.48745E-3,0
STARLINK-33939,2025-087F,2026-06-27T00:06:25.979040,15.31691724,.00010321,53.1582,71.2762,96.7532,263.3587,0,U,63702,999,6594,.11459139E-2,.35353E-3,0
STARLINK-33868,2025-087G,2026-06-26T23:39:49.112640,15.30175225,.00011092,53.1589,71.8640,78.0778,282.0347,0,U,63703,999,6593,.95343103E-3,.27963E-3,0
STARLINK-33937,2025-087H,2026-06-27T10:03:14.651712,15.30193640,.0001158,53.1603,69.5927,81.8642,278.2490,0,U,63704,999,6600,.68789E-3,.20065E-3,0
STARLINK-33848,2025-087J,2026-06-27T10:19:57.239904,15.30193090,.0001177,53.1600,69.6643,85.6122,274.5014,0,U,63705,999,6599,.70491E-3,.20572E-3,0
STARLINK-33995,2025-087K,2026-06-27T00:22:22.880640,15.30192643,.00011149,53.1591,72.0475,72.5468,287.5654,0,U,63706,999,6593,.60457138E-3,.17585E-3,0
STARLINK-33982,2025-087L,2026-06-27T10:29:04.583904,15.30191780,.0001122,53.1601,69.6998,97.8513,262.2615,0,U,63707,999,6600,.6413E-3,.18677E-3,0
STARLINK-33915,2025-087M,2026-06-26T23:47:24.988416,15.30176868,.00010262,53.1585,71.8995,85.1203,274.9915,0,U,63708,999,6593,.11800666E-2,.34729E-3,0
STARLINK-33862,2025-087N,2026-06-26T23:38:18.256128,15.30196620,.00012525,53.1593,71.8617,83.7301,276.3843,0,U,63709,999,6593,.92145756E-3,.27028E-3,0
STARLINK-33920,2025-087P,2026-06-27T09:57:04.583232,15.31712428,.0001055,53.1589,69.5728,91.2816,268.8306,0,U,63710,999,6600,-.1092E-3,-.3753E-4,0
STARLINK-33580,2025-087Q,2026-06-27T10:03:48.790080,15.31701544,.0001701,53.1600,69.5973,78.2028,281.9165,0,U,63711,999,6600,.65876E-3,.20133E-3,0
STARLINK-33783,2025-087R,2026-06-27T09:43:38.661312,15.31696346,.0001178,53.1583,69.5079,81.4616,278.6519,0,U,63712,999,6600,.72512E-3,.22201E-3,0
STARLINK-33773,2025-087S,2026-06-27T10:23:49.869312,15.31700022,.0001166,53.1596,68.9712,95.7464,264.3671,0,U,63713,999,6601,.71647E-3,.21933E-3,0
STARLINK-33745,2025-087T,2026-06-27T08:00:01.999008,15.30203733,.0001092,53.1601,70.0566,101.7245,111.8818,0,U,63714,999,588,-.61268E-3,-.18462E-3,0
